#aV2010  5 25  0  0   .00000000      96 DD+AD WGS84 FIT  NGA
## 1585 172800.00000000   900.00000000 55341  .0000000000000
+   30     1  2  3  4  5  6  7  8  9 10 11 12 13 14 15 16 17
+         18 19 20 21 22 23 24 26 27 28 29 30 31  0  0  0  0
+          0  0  0  0  0  0  0  0  0  0  0  0  0  0  0  0  0
+          0  0  0  0  0  0  0  0  0  0  0  0  0  0  0  0  0
+          0  0  0  0  0  0  0  0  0  0  0  0  0  0  0  0  0
++         0  0  0  0  0  0  0  0  0  0  0  0  0  0  0  0  0
++         0  0  0  0  0  0  0  0  0  0  0  0  0  0  0  0  0
++         0  0  0  0  0  0  0  0  0  0  0  0  0  0  0  0  0
++         0  0  0  0  0  0  0  0  0  0  0  0  0  0  0  0  0
++         0  0  0  0  0  0  0  0  0  0  0  0  0  0  0  0  0
%c cc cc ccc ccc cccc cccc cccc cccc ccccc ccccc ccccc ccccc
%c cc cc ccc ccc cccc cccc cccc cccc ccccc ccccc ccccc ccccc
%f  0.0000000  0.000000000  0.00000000000  0.000000000000000
%f  0.0000000  0.000000000  0.00000000000  0.000000000000000
%i    0    0    0    0      0      0      0      0         0
%i    0    0    0    0      0      0      0      0         0
/*      NGA, ST. LOUIS,MO.                                  
/*   EPHEMERIS COMPUTED FROM  3 DAYS OF DATA                
/* CCCCCCCCCCCCCCCCCCCCCCCCCCCCCCCCCCCCCCCCCCCCCCCCCCCCCCCCC
/* CCCCCCCCCCCCCCCCCCCCCCCCCCCCCCCCCCCCCCCCCCCCCCCCCCCCCCCCC
*  2010  5 25  9 30   .00000000                                                 
P  1 -15479.569057   2943.427278  21300.298721   -123.585451                    
V  1 -13723.772737 -23555.776900  -6538.620030      -.040438                    
P  2  12774.540808 -13916.044762  18464.342308    258.772343                    
V  2  23779.661915   1225.741132 -15966.216938       .033714                    
P  3  -9030.655601  24761.072753  -1235.305576    559.574789                    
V  3  -4311.555362   -488.357144  31151.384933       .049180                    
P  4  24644.785474  -6295.259892   8088.656289     89.470995                    
V  4  10477.127641   2830.630684 -28746.390411       .082723                    
P  5   2212.935987 -19904.196104  17387.104442     -4.186613                    
V  5  13003.901487  18019.960334  19036.533640      -.014004                    
P  6 -13506.248296  22606.906784   2952.090681    629.397493                    
V  6  -1794.286706  -4846.796006  30945.896891      -.116900                    
P  7  23577.415393   6762.514837  10389.807020      -.743935                    
V  7 -13108.118584   2238.205781  28090.840751      -.003034                    
P  8  26797.467668    316.298541  -1726.256351      5.528339                    
V  8   2059.706201   1443.759364  32003.310169       .002092                    
P  9  -5857.190980 -14494.399359 -22024.400736      8.592637                    
V  9  26566.309483  -1541.058670  -6163.418950       .022190                    
P 10  10538.441851 -11764.213346  21121.232765    -43.276210                    
V 10  14219.105277  23356.878299   6204.381067      -.007394                    
P 11  11740.154252  13653.808074 -19866.657112    -64.740298                    
V 11 -23816.732813   7433.171998  -8716.437236      -.025055                    
P 12 -11778.169689 -23735.879744  -2748.892473   -111.524555                    
V 12   3817.645669   1850.874669 -31625.662077       .042216                    
P 13  10933.258691   9614.172667  22072.221285    304.074088                    
V 13 -15520.743978  23644.054874  -2624.240514      -.004016                    
P 14 -18596.662736  10421.363434 -15624.100602     49.527434                    
V 14   9237.665280 -17904.697125 -22864.605604       .043166                    
P 15   4288.405904 -23941.962294 -10517.525968   -267.536321                    
V 15   8746.949755 -10554.615629  27673.197099       .060910                    
P 16  -7237.395104  15412.396437  20351.692256    -74.892633                    
V 16 -13597.221120 -21941.593208  12076.750264      -.037522                    
P 17  18615.859754  -9100.311019 -16388.687172    152.848144                    
V 17  -8892.606923  19237.619898 -20856.929458       .022943                    
P 18 -18691.759619 -14181.088423 -12532.915687     70.434411                    
V 18  -5735.726309 -15441.353197  25098.846530       .024076                    
P 19  -5257.147101  23025.674938 -11802.087517    -37.391961                    
V 19 -10606.199117  11161.276322  26729.013356      -.027255                    
P 20  13809.849384  22705.189759   -956.606025     55.620820                    
V 20  -3516.857422   1010.818858 -31167.796095      -.005709                    
P 21 -25596.685990  -4995.921415   6892.376306    -62.499119                    
V 21   8190.484874  -2964.732232  29099.458463      -.026032                    
P 22 -17636.611927  -1771.450171 -19643.992959    171.245724                    
V 22 -11266.132200 -22765.932258  11977.573461      -.008082                    
P 23   5383.667903  17371.123808  19214.986935    369.572238                    
V 23 -13301.011859  20678.267874 -15255.596145      -.014214                    
P 24 -26040.827446   2006.404859  -4033.822732    290.383863                    
V 24  -5150.049337  -3509.559443  31091.359853       .033102                    
P 26   -823.185462 -20100.751570 -17637.579679    -56.590638                    
V 26  12665.110897 -17357.257783  20227.362121      -.053121                    
P 27  -2106.480484 -14389.037725 -21551.141204    155.061670                    
V 27  28888.030601  -2074.804800  -1244.986478       .033959                    
P 28  17603.177714   5133.182242 -18844.636613    -15.346637                    
V 28  10978.076473  22290.628470  15649.315299       .009402                    
P 29 -11504.637308 -10348.558791  21685.409543    122.411829                    
V 29  14227.927590 -23311.481311  -3551.600404       .028677                    
P 30 -17849.969240 -18384.432199   6697.282569    245.819587                    
V 30  -2604.117013  -9089.549045 -30066.875118       .033738                    
P 31 -23138.163657   7715.912980  10933.364978    -34.679709                    
V 31 -13513.269838  -1622.938865 -27810.253904       .020990                    
EOF
